OBJECT_NAME,OBJECT_ID,EPOCH,MEAN_MOTION,ECCENTRICITY,INCLINATION,RA_OF_ASC_NODE,ARG_OF_PERICENTER,MEAN_ANOMALY,EPHEMERIS_TYPE,CLASSIFICATION_TYPE,NORAD_CAT_ID,ELEMENT_SET_NO,REV_AT_EPOCH,BSTAR,MEAN_MOTION_DOT,MEAN_MOTION_DDOT
STARLINK-36933,2026-114Q,2026-06-16T02:43:03.091872,15.80915133,.000087,53.1572,207.5236,55.8640,304.2465,0,U,69196,999,460,.91E-3,.183119E-2,0
STARLINK-37419,2026-114R,2026-06-16T02:40:53.514336,15.80904931,.0001185,53.1571,207.5131,52.7382,307.3749,0,U,69197,999,460,.86376E-3,.173502E-2,0
STARLINK-37321,2026-114S,2026-06-16T02:39:48.557088,15.80909496,.0001245,53.1573,207.5080,87.1125,273.0040,0,U,69198,999,460,.7746E-3,.15522E-2,0
STARLINK-37406,2026-114T,2026-06-16T02:38:43.801152,15.80913740,.0001016,53.1570,207.5032,92.3533,267.7606,0,U,69199,999,460,.7833E-3,.157036E-2,0
STARLINK-37761,2026-114U,2026-06-16T02:37:39.022752,15.80905550,.0000846,53.1570,207.4971,86.3017,273.8102,0,U,69200,999,460,.89742E-3,.180443E-2,0
STARLINK-37754,2026-114V,2026-06-16T02:36:17.582112,15.80902473,.0001277,53.1570,207.4911,66.4368,293.6789,0,U,69201,999,460,.77362E-3,.154969E-2,0
STARLINK-37649,2026-114W,2026-06-16T02:35:29.446944,15.80927389,.0001268,53.1571,207.4876,81.6258,278.4909,0,U,69202,999,460,.8914E-3,.179386E-2,0
STARLINK-37604,2026-114X,2026-06-16T04:05:27.148704,15.80911317,.0002104,53.1571,207.1661,29.7986,330.3157,0,U,69203,999,461,.88793E-3,.178541E-2,0
STARLINK-37669,2026-114Y,2026-06-16T04:04:22.212192,15.80941858,.0001833,53.1569,207.1606,42.7916,317.3249,0,U,69204,999,461,.11602E-2,.23539E-2,0
STARLINK-37691,2026-114Z,2026-06-16T02:51:26.213760,15.78068924,.0000732,53.1576,207.5612,71.0631,289.0469,0,U,69205,999,460,.95372E-3,.16833E-2,0
STARLINK-37671,2026-114AA,2026-06-16T02:40:54.568416,15.78080431,.0001043,53.1582,207.5127,88.2365,271.8776,0,U,69206,999,460,.93193E-3,.164478E-2,0
STARLINK-37647,2026-114AB,2026-06-16T04:03:17.436384,15.80941991,.0001809,53.1569,207.1556,32.9809,327.1326,0,U,69207,999,461,.12535E-2,.254945E-2,0
STARLINK-37562,2026-114AC,2026-06-16T02:43:50.904768,15.78068630,.0001126,53.1582,207.5257,74.1828,285.9318,0,U,69208,999,460,.11017E-2,.195172E-2,0
STARLINK-37682,2026-114AD,2026-06-16T03:58:58.047168,15.80937109,.0001644,53.1569,207.1348,37.3815,322.7322,0,U,69209,999,461,.10518E-2,.212704E-2,0
STARLINK-37402,2026-114AE,2026-06-16T03:57:53.323200,15.80928771,.0001503,53.1568,207.1298,58.8605,301.2565,0,U,69210,999,461,.88777E-3,.17865E-2,0
STARLINK-37613,2026-115A,2026-06-16T03:56:47.158944,15.49166012,.0001127,97.2835,184.2686,91.7343,268.4038,0,U,69211,999,450,.64253E-3,.34982E-3,0
STARLINK-37713,2026-115B,2026-06-16T04:00:01.998720,15.49206236,.0001962,97.2846,184.3971,92.2942,215.5731,0,U,69212,999,452,-.47338E-3,-.25769E-3,0
STARLINK-37716,2026-115C,2026-06-16T04:00:01.998720,15.49129608,.0001702,97.2842,184.4529,86.5644,351.8182,0,U,69213,999,452,.41324E-6,-.68E-6,0
STARLINK-37620,2026-115D,2026-06-16T02:44:18.500928,15.49197827,.0000462,97.2836,184.1833,61.5593,298.5705,0,U,69214,999,449,.41008E-3,.22282E-3,0
STARLINK-37700,2026-115E,2026-06-16T03:39:01.814112,15.49212109,.0001336,97.2831,184.1330,86.4024,273.7379,0,U,69215,999,449,.50302E-3,.27385E-3,0
STARLINK-37766,2026-115F,2026-06-16T04:00:01.998720,15.55492207,.0001975,97.2840,184.4999,73.7782,108.1562,0,U,69216,999,452,-.42183E-1,-.2500037E-1,0
STARLINK-37763,2026-115G,2026-06-16T04:00:01.998720,15.49718224,.0001521,97.2839,184.4499,98.6346,327.7738,0,U,69217,999,452,-.16868E-1,-.853282E-2,0
STARLINK-37724,2026-115H,2026-06-16T04:00:01.998720,15.57696996,.0001789,97.2843,184.5338,91.1631,169.5699,0,U,69218,999,452,-.39756E-1,-.255061E-1,0
STARLINK-37758,2026-115J,2026-06-16T04:00:01.998720,15.58078871,.0001965,97.2843,184.5410,100.2976,179.8993,0,U,69219,999,452,-.3756E-1,-.2458751E-1,0
STARLINK-37201,2026-115K,2026-06-16T04:00:01.998720,15.57797752,.0001835,97.2842,184.5409,94.6642,179.6123,0,U,69220,999,452,-.38938E-1,-.2513446E-1,0
STARLINK-37728,2026-115L,2026-06-16T04:00:01.998720,15.56182797,.0001759,97.2842,184.5342,85.2275,175.1728,0,U,69221,999,452,-.41537E-1,-.25221E-1,0
STARLINK-37760,2026-115M,2026-06-16T04:00:01.998720,15.59362450,.0001615,97.2843,184.5494,99.0982,196.6564,0,U,69222,999,452,-.37328E-1,-.2550984E-1,0
STARLINK-37759,2026-115N,2026-06-16T04:00:01.998720,15.49174648,.0001032,97.2840,184.4510,100.2355,334.9465,0,U,69223,999,452,-.84966E-4,-.4706E-4,0
STARLINK-37725,2026-115P,2026-06-16T04:00:01.998720,15.49167101,.0001315,97.2838,184.4571,91.5567,356.2856,0,U,69224,999,452,-.1209E-3,-.6655E-4,0
STARLINK-37770,2026-115Q,2026-06-16T04:00:01.998720,15.60405744,.0001385,97.2842,184.5597,89.4951,232.2968,0,U,69225,999,452,-.35828E-1,-.2548698E-1,0
