STARLINK-36933          
1 69196U 26114Q   26167.11323023  .00183119  00000+0  91000-3 0  9997
2 69196  53.1572 207.5236 0000870  55.8640 304.2465 15.80915133  4604
STARLINK-37419          
1 69197U 26114R   26167.11173049  .00173502  00000+0  86376-3 0  9994
2 69197  53.1571 207.5131 0001185  52.7382 307.3749 15.80904931  4600
STARLINK-37321          
1 69198U 26114S   26167.11097867  .00155220  00000+0  77460-3 0  9999
2 69198  53.1573 207.5080 0001245  87.1125 273.0040 15.80909496  4604
STARLINK-37406          
1 69199U 26114T   26167.11022918  .00157036  00000+0  78330-3 0  9999
2 69199  53.1570 207.5032 0001016  92.3533 267.7606 15.80913740  4601
STARLINK-37761          
1 69200U 26114U   26167.10947943  .00180443  00000+0  89742-3 0  9992
2 69200  53.1570 207.4971 0000846  86.3017 273.8102 15.80905550  4604
STARLINK-37754          
1 69201U 26114V   26167.10853683  .00154969  00000+0  77362-3 0  9999
2 69201  53.1570 207.4911 0001277  66.4368 293.6789 15.80902473  4608
STARLINK-37649          
1 69202U 26114W   26167.10797971  .00179386  00000+0  89140-3 0  9994
2 69202  53.1571 207.4876 0001268  81.6258 278.4909 15.80927389  4605
STARLINK-37604          
1 69203U 26114X   26167.17045311  .00178541  00000+0  88793-3 0  9991
2 69203  53.1571 207.1661 0002104  29.7986 330.3157 15.80911317  4614
STARLINK-37669          
1 69204U 26114Y   26167.16970153  .00235390  00000+0  11602-2 0  9992
2 69204  53.1569 207.1606 0001833  42.7916 317.3249 15.80941858  4617
STARLINK-37691          
1 69205U 26114Z   26167.11905340  .00168330  00000+0  95372-3 0  9990
2 69205  53.1576 207.5612 0000732  71.0631 289.0469 15.78068924  4602
STARLINK-37671          
1 69206U 26114AA  26167.11174269  .00164478  00000+0  93193-3 0  9997
2 69206  53.1582 207.5127 0001043  88.2365 271.8776 15.78080431  4608
STARLINK-37647          
1 69207U 26114AB  26167.16895181  .00254945  00000+0  12535-2 0  9995
2 69207  53.1569 207.1556 0001809  32.9809 327.1326 15.80941991  4612
STARLINK-37562          
1 69208U 26114AC  26167.11378362  .00195172  00000+0  11017-2 0  9998
2 69208  53.1582 207.5257 0001126  74.1828 285.9318 15.78068630  4609
STARLINK-37682          
1 69209U 26114AD  26167.16594962  .00212704  00000+0  10518-2 0  9996
2 69209  53.1569 207.1348 0001644  37.3815 322.7322 15.80937109  4619
STARLINK-37402          
1 69210U 26114AE  26167.16520050  .00178650  00000+0  88777-3 0  9999
2 69210  53.1568 207.1298 0001503  58.8605 301.2565 15.80928771  4619
STARLINK-37613          
1 69211U 26115A   26167.16443471  .00034982  00000+0  64253-3 0  9994
2 69211  97.2835 184.2686 0001127  91.7343 268.4038 15.49166012  4503
STARLINK-37713          
1 69212U 26115B   26167.16668980 -.00025769  00000+0 -47338-3 0  9999
2 69212  97.2846 184.3971 0001962  92.2942 215.5731 15.49206236  4520
STARLINK-37716          
1 69213U 26115C   26167.16668980 -.00000068  00000+0  41324-6 0  9996
2 69213  97.2842 184.4529 0001702  86.5644 351.8182 15.49129608  4525
STARLINK-37620          
1 69214U 26115D   26167.11410302  .00022282  00000+0  41008-3 0  9992
2 69214  97.2836 184.1833 0000462  61.5593 298.5705 15.49197827  4494
STARLINK-37700          
1 69215U 26115E   26167.15210433  .00027385  00000+0  50302-3 0  9996
2 69215  97.2831 184.1330 0001336  86.4024 273.7379 15.49212109  4491
STARLINK-37766          
1 69216U 26115F   26167.16668980 -.02500037  00000+0 -42183-1 0  9992
2 69216  97.2840 184.4999 0001975  73.7782 108.1562 15.55492207  4520
STARLINK-37763          
1 69217U 26115G   26167.16668980 -.00853282  00000+0 -16868-1 0  9995
2 69217  97.2839 184.4499 0001521  98.6346 327.7738 15.49718224  4520
STARLINK-37724          
1 69218U 26115H   26167.16668980 -.02550610  00000+0 -39756-1 0  9998
2 69218  97.2843 184.5338 0001789  91.1631 169.5699 15.57696996  4528
STARLINK-37758          
1 69219U 26115J   26167.16668980 -.02458751  00000+0 -37560-1 0  9993
2 69219  97.2843 184.5410 0001965 100.2976 179.8993 15.58078871  4528
STARLINK-37201          
1 69220U 26115K   26167.16668980 -.02513446  00000+0 -38938-1 0  9998
2 69220  97.2842 184.5409 0001835  94.6642 179.6123 15.57797752  4527
STARLINK-37728          
1 69221U 26115L   26167.16668980 -.02522100  00000+0 -41537-1 0  9995
2 69221  97.2842 184.5342 0001759  85.2275 175.1728 15.56182797  4525
STARLINK-37760          
1 69222U 26115M   26167.16668980 -.02550984  00000+0 -37328-1 0  9990
2 69222  97.2843 184.5494 0001615  99.0982 196.6564 15.59362450  4529
STARLINK-37759          
1 69223U 26115N   26167.16668980 -.00004706  00000+0 -84966-4 0  9998
2 69223  97.2840 184.4510 0001032 100.2355 334.9465 15.49174648  4523
STARLINK-37725          
1 69224U 26115P   26167.16668980 -.00006655  00000+0 -12090-3 0  9992
2 69224  97.2838 184.4571 0001315  91.5567 356.2856 15.49167101  4526
STARLINK-37770          
1 69225U 26115Q   26167.16668980 -.02548698  00000+0 -35828-1 0  9995
2 69225  97.2842 184.5597 0001385  89.4951 232.2968 15.60405744  4529
